ONEWEB-0369             
1 49295U 21090S   26197.21979816  .00000086  00000+0  18274-3 0  9997
2 49295  87.9187 299.1922 0002017 103.8186 256.3171 13.19727180230247
ONEWEB-0370             
1 49296U 21090T   26196.73273152  .00000018  00000+0  12085-4 0  9994
2 49296  87.9185 268.7521 0002313  94.9418 265.1980 13.20771754233630
ONEWEB-0371             
1 49297U 21090U   26197.22769571  .00000085  00000+0  17905-3 0  9994
2 49297  87.9192 299.1854 0002117 101.2720 258.8651 13.19725817230285
ONEWEB-0372             
1 49298U 21090V   26197.17702265  .00000042  00000+0  71728-4 0  9993
2 49298  87.9187 268.6654 0002102 100.2407 259.8964 13.20769727233667
ONEWEB-0373             
1 49299U 21090W   26197.20240963  .00000084  00000+0  17441-3 0  9997
2 49299  87.9185 268.6598 0002086  96.0589 264.0782 13.20773385234850
ONEWEB-0374             
1 49300U 21090X   26197.19571916 -.00000239  00000+0 -68021-3 0  9997
2 49300  87.8970 283.9187 0001560  88.7448 271.3860 13.14503287231373
ONEWEB-0375             
1 49301U 21090Y   26197.11487176  .00000038  00000+0  60827-4 0  9996
2 49301  87.9186 268.6698 0001650  86.1502 273.9819 13.20772994234346
ONEWEB-0376             
1 49302U 21090Z   26196.84702376  .00000081  00000+0  16906-3 0  9994
2 49302  87.9193 299.2609 0002080 105.4886 254.6476 13.19726825230234
ONEWEB-0377             
1 49303U 21090AA  26196.26821972 -.00000011  00000+0 -59104-4 0  9998
2 49303  87.9187 268.8406 0001936  94.7820 265.3534 13.20773309234220
ONEWEB-0378             
1 49304U 21090AB  26197.19751590  .00000047  00000+0  82492-4 0  9993
2 49304  87.9181 268.6591 0001912  97.7761 262.3589 13.20772079233611
ONEWEB-0379             
1 49305U 21090AC  26196.73426131 -.00000163  00000+0 -47544-3 0  9992
2 49305  87.8969 284.0208 0001901  99.3037 260.8308 13.14502536231313
ONEWEB-0380             
1 49306U 21090AD  26196.84387514  .00000116  00000+0  25710-3 0  9993
2 49306  87.9187 299.2648 0001985  94.8811 265.2549 13.19726789230201
ONEWEB-0381             
1 49307U 21090AE  26197.17378416 -.00000195  00000+0 -51248-3 0  9996
2 49307  87.9187 268.6647 0001841  94.7737 265.3606 13.20770788233655
ONEWEB-0382             
1 49308U 21090AF  26196.63004190  .00000077  00000+0  15632-3 0  9996
2 49308  87.9185 268.7671 0001785  97.2585 262.8752 13.20771697233573
ONEWEB-0383             
1 49309U 21090AG  26196.72791850 -.00000213  00000+0 -60947-3 0  9996
2 49309  87.8973 284.0141 0001876 100.9685 259.1656 13.14502862231349
ONEWEB-0384             
1 49310U 21090AH  26197.14806111  .00000076  00000+0  15489-3 0  9998
2 49310  87.9186 268.7078 0001623  99.8638 260.2679 13.20814481233654
ONEWEB-0385             
1 49311U 21090AJ  26197.15358472 -.00006098  00000+0 -15033-1 0  9997
2 49311  87.9183 268.6681 0002007  92.2544 267.8819 13.20799965233626
ONEWEB-0386             
1 49312U 21090AK  26196.64012215  .00000055  00000+0  10240-3 0  9995
2 49312  87.9189 268.7625 0001800  98.4922 261.6415 13.20773470233571
ONEWEB-0387             
1 49313U 21090AL  26197.15527639  .00000091  00000+0  19105-3 0  9993
2 49313  87.9174 268.6782 0001984  88.0341 272.1020 13.20769639233641
ONEWEB-0388             
1 49314U 21090AM  26197.21821748  .00000028  00000+0  38040-4 0  9999
2 49314  87.9185 299.1882 0001870  99.8333 260.3011 13.19727041230240
ONEWEB-0389             
1 50469U 21132A   26196.97851354  .00000005  00000+0 -21239-4 0  9995
2 50469  87.9145   0.1400 0001712  82.6959 277.4367 13.17650668221874
ONEWEB-0390             
1 50470U 21132B   26196.98020054  .00000030  00000+0  43857-4 0  9990
2 50470  87.9146   0.1406 0002076  91.2675 268.8695 13.17650815221870
ONEWEB-0391             
1 50471U 21132C   26196.98188802  .00000050  00000+0  94858-4 0  9996
2 50471  87.9146   0.1503 0002000  68.6106 291.5239 13.17650985221878
ONEWEB-0392             
1 50472U 21132D   26197.01226687  .00000013  00000+0  12537-5 0  9990
2 50472  87.9155   0.1146 0001751  81.1357 278.9973 13.17650947221919
ONEWEB-0393             
1 50473U 21132E   26196.98780935  .00000083  00000+0  18091-3 0  9993
2 50473  87.9143   0.1344 0001795  88.6842 271.4495 13.17647282221900
ONEWEB-0394             
1 50474U 21132F   26196.85530428  .00000070  00000+0  14450-3 0  9991
2 50474  87.9196 329.7418 0001742  97.5224 262.6106 13.18684965225372
ONEWEB-0395             
1 50475U 21132G   26197.00722017  .00000106  00000+0  26405-3 0  9990
2 50475  87.8884  15.3274 0002013  84.7821 275.3537 13.11419498219492
ONEWEB-0396             
1 50476U 21132H   26196.92444257 -.00000008  00000+0 -52661-4 0  9995
2 50476  87.9198 329.7409 0001745  95.7869 264.3462 13.18686884225426
ONEWEB-0397             
1 50477U 21132J   26196.86373696 -.00000016  00000+0 -73175-4 0  9999
2 50477  87.9198 329.7531 0001638  97.7860 262.3458 13.18686575225393
ONEWEB-0398             
1 50478U 21132K   26196.97500573 -.00000299  00000+0 -88082-3 0  9993
2 50478  87.8890  15.3266 0002156  88.9751 271.1623 13.11415552219384
