OBJECT_NAME,OBJECT_ID,EPOCH,MEAN_MOTION,ECCENTRICITY,INCLINATION,RA_OF_ASC_NODE,ARG_OF_PERICENTER,MEAN_ANOMALY,EPHEMERIS_TYPE,CLASSIFICATION_TYPE,NORAD_CAT_ID,ELEMENT_SET_NO,REV_AT_EPOCH,BSTAR,MEAN_MOTION_DOT,MEAN_MOTION_DDOT
ONEWEB-0369,2021-090S,2026-07-16T05:16:30.561024,13.19727180,.0002017,87.9187,299.1922,103.8186,256.3171,0,U,49295,999,23024,.18274E-3,.86E-6,0
ONEWEB-0370,2021-090T,2026-07-15T17:35:08.003328,13.20771754,.00023137,87.9185,268.7521,94.9418,265.1980,0,U,49296,999,23363,.12084868E-4,.18E-6,0
ONEWEB-0371,2021-090U,2026-07-16T05:27:52.909344,13.19725817,.0002117,87.9192,299.1854,101.2720,258.8651,0,U,49297,999,23028,.17905E-3,.85E-6,0
ONEWEB-0372,2021-090V,2026-07-16T04:14:54.756960,13.20769727,.0002102,87.9187,268.6654,100.2407,259.8964,0,U,49298,999,23366,.71728E-4,.42E-6,0
ONEWEB-0373,2021-090W,2026-07-16T04:51:28.192032,13.20773385,.0002086,87.9185,268.6598,96.0589,264.0782,0,U,49299,999,23485,.17441E-3,.84E-6,0
ONEWEB-0374,2021-090X,2026-07-16T04:41:50.135424,13.14503287,.000156,87.8970,283.9187,88.7448,271.3860,0,U,49300,999,23137,-.68021E-3,-.239E-5,0
ONEWEB-0375,2021-090Y,2026-07-16T02:45:24.920064,13.20772994,.000165,87.9186,268.6698,86.1502,273.9819,0,U,49301,999,23434,.60827E-4,.38E-6,0
ONEWEB-0376,2021-090Z,2026-07-15T20:19:42.852864,13.19726825,.000208,87.9193,299.2609,105.4886,254.6476,0,U,49302,999,23023,.16906E-3,.81E-6,0
ONEWEB-0377,2021-090AA,2026-07-15T06:26:14.183808,13.20773309,.00019366,87.9187,268.8406,94.7820,265.3534,0,U,49303,999,23422,-.59104467E-4,-.11E-6,0
ONEWEB-0378,2021-090AB,2026-07-16T04:44:25.373760,13.20772079,.0001912,87.9181,268.6591,97.7761,262.3589,0,U,49304,999,23361,.82492E-4,.47E-6,0
ONEWEB-0379,2021-090AC,2026-07-15T17:37:20.177184,13.14502536,.00019011,87.8969,284.0208,99.3037,260.8308,0,U,49305,999,23131,-.4754446E-3,-.163E-5,0
ONEWEB-0380,2021-090AD,2026-07-15T20:15:10.812096,13.19726789,.0001985,87.9187,299.2648,94.8811,265.2549,0,U,49306,999,23020,.2571E-3,.116E-5,0
ONEWEB-0381,2021-090AE,2026-07-16T04:10:14.951424,13.20770788,.0001841,87.9187,268.6647,94.7737,265.3606,0,U,49307,999,23365,-.51248E-3,-.195E-5,0
ONEWEB-0382,2021-090AF,2026-07-15T15:07:15.620160,13.20771697,.00017851,87.9185,268.7671,97.2585,262.8752,0,U,49308,999,23357,.15632318E-3,.77E-6,0
ONEWEB-0383,2021-090AG,2026-07-15T17:28:12.158400,13.14502862,.00018764,87.8973,284.0141,100.9685,259.1656,0,U,49309,999,23134,-.60946524E-3,-.213E-5,0
ONEWEB-0384,2021-090AH,2026-07-16T03:33:12.479904,13.20814481,.0001623,87.9186,268.7078,99.8638,260.2679,0,U,49310,999,23365,.15489E-3,.76E-6,0
ONEWEB-0385,2021-090AJ,2026-07-16T03:41:09.719808,13.20799965,.0002007,87.9183,268.6681,92.2544,267.8819,0,U,49311,999,23362,-.15033E-1,-.6098E-4,0
ONEWEB-0386,2021-090AK,2026-07-15T15:21:46.553760,13.20773470,.00018006,87.9189,268.7625,98.4922,261.6415,0,U,49312,999,23357,.10240059E-3,.55E-6,0
ONEWEB-0387,2021-090AL,2026-07-16T03:43:35.880096,13.20769639,.0001984,87.9174,268.6782,88.0341,272.1020,0,U,49313,999,23364,.19105E-3,.91E-6,0
ONEWEB-0388,2021-090AM,2026-07-16T05:14:13.990272,13.19727041,.000187,87.9185,299.1882,99.8333,260.3011,0,U,49314,999,23024,.3804E-4,.28E-6,0
ONEWEB-0389,2021-132A,2026-07-15T23:29:03.569856,13.17650668,.0001712,87.9145,0.1400,82.6959,277.4367,0,U,50469,999,22187,-.21239E-4,.5E-7,0
ONEWEB-0390,2021-132B,2026-07-15T23:31:29.326656,13.17650815,.0002076,87.9146,0.1406,91.2675,268.8695,0,U,50470,999,22187,.43857E-4,.3E-6,0
ONEWEB-0391,2021-132C,2026-07-15T23:33:55.124928,13.17650985,.0002,87.9146,0.1503,68.6106,291.5239,0,U,50471,999,22187,.94858E-4,.5E-6,0
ONEWEB-0392,2021-132D,2026-07-16T00:17:39.857568,13.17650947,.0001751,87.9155,0.1146,81.1357,278.9973,0,U,50472,999,22191,.12537E-5,.13E-6,0
ONEWEB-0393,2021-132E,2026-07-15T23:42:26.727840,13.17647282,.0001795,87.9143,0.1344,88.6842,271.4495,0,U,50473,999,22190,.18091E-3,.83E-6,0
ONEWEB-0394,2021-132F,2026-07-15T20:31:38.289792,13.18684965,.00017423,87.9196,329.7418,97.5224,262.6106,0,U,50474,999,22537,.14449831E-3,.7E-6,0
ONEWEB-0395,2021-132G,2026-07-16T00:10:23.822688,13.11419498,.0002013,87.8884,15.3274,84.7821,275.3537,0,U,50475,999,21949,.26405E-3,.106E-5,0
ONEWEB-0396,2021-132H,2026-07-15T22:11:11.838048,13.18686884,.0001745,87.9198,329.7409,95.7869,264.3462,0,U,50476,999,22542,-.52661E-4,-.8E-7,0
ONEWEB-0397,2021-132J,2026-07-15T20:43:46.873344,13.18686575,.0001638,87.9198,329.7531,97.7860,262.3458,0,U,50477,999,22539,-.73175E-4,-.16E-6,0
ONEWEB-0398,2021-132K,2026-07-15T23:24:00.495072,13.11415552,.0002156,87.8890,15.3266,88.9751,271.1623,0,U,50478,999,21938,-.88082E-3,-.299E-5,0
